{
  "type": "FeatureCollection",
  "features": [
    {
      "type": "Feature",
      "properties": {
        "norad_id": 29930,
        "name": "FENGYUN 1C DEB",
        "group": "fengyun-1c-debris",
        "lat": 8.94311304642259,
        "lon": -124.88033639311449,
        "alt_km": 715.1852766522634,
        "timestamp": "2025-12-20T03:42:47.665481+00:00",
        "meta_object_name": "FENGYUN 1C DEB",
        "meta_object_id": "1999-025JC",
        "meta_epoch": "2025-12-19T15:56:17.555712",
        "meta_mean_motion": 14.20824596,
        "meta_eccentricity": 0.0164401,
        "meta_inclination": 99.0443,
        "meta_ra_of_asc_node": 236.0538,
        "meta_arg_of_pericenter": 33.8734,
        "meta_mean_anomaly": 347.8989,
        "meta_ephemeris_type": 0,
        "meta_classification_type": "U",
        "meta_norad_cat_id": 29930,
        "meta_element_set_no": 999,
        "meta_rev_at_epoch": 97989,
        "meta_bstar": 0.00018322,
        "meta_mean_motion_dot": 4.07e-06,
        "meta_mean_motion_ddot": 0,
        "tle_line1": "1 29930U 99025JC  25353.66409208  .00000407  00000+0  18322-3 0  9990",
        "tle_line2": "2 29930  99.0443 236.0538 0164401  33.8734 347.8989 14.20824596979896"
      },
      "geometry": {
        "type": "Point",
        "coordinates": [
          -124.88033639311449,
          8.94311304642259
        ]
      }
    },
    {
      "type": "Feature",
      "properties": {
        "norad_id": 29931,
        "name": "FENGYUN 1C DEB",
        "group": "fengyun-1c-debris",
        "lat": -76.60713003150417,
        "lon": 70.19682060436406,
        "alt_km": 908.6706409792823,
        "timestamp": "2025-12-20T03:42:47.665491+00:00",
        "meta_object_name": "FENGYUN 1C DEB",
        "meta_object_id": "1999-025JD",
        "meta_epoch": "2025-12-19T20:22:52.416192",
        "meta_mean_motion": 14.03900334,
        "meta_eccentricity": 0.0032417,
        "meta_inclination": 98.8591,
        "meta_ra_of_asc_node": 28.9777,
        "meta_arg_of_pericenter": 74.4698,
        "meta_mean_anomaly": 102.6389,
        "meta_ephemeris_type": 0,
        "meta_classification_type": "U",
        "meta_norad_cat_id": 29931,
        "meta_element_set_no": 999,
        "meta_rev_at_epoch": 96912,
        "meta_bstar": 0.00032736,
        "meta_mean_motion_dot": 4.76e-06,
        "meta_mean_motion_ddot": 0,
        "tle_line1": "1 29931U 99025JD  25353.84921778  .00000476  00000+0  32736-3 0  9993",
        "tle_line2": "2 29931  98.8591  28.9777 0032417  74.4698 102.6389 14.03900334969124"
      },
      "geometry": {
        "type": "Point",
        "coordinates": [
          70.19682060436406,
          -76.60713003150417
        ]
      }
    },
    {
      "type": "Feature",
      "properties": {
        "norad_id": 29932,
        "name": "FENGYUN 1C DEB",
        "group": "fengyun-1c-debris",
        "lat": -4.732270289278232,
        "lon": 5.341648138691527,
        "alt_km": 823.5448766352283,
        "timestamp": "2025-12-20T03:42:47.665502+00:00",
        "meta_object_name": "FENGYUN 1C DEB",
        "meta_object_id": "1999-025JE",
        "meta_epoch": "2025-12-19T11:31:42.964032",
        "meta_mean_motion": 14.16770472,
        "meta_eccentricity": 0.0038374,
        "meta_inclination": 98.6338,
        "meta_ra_of_asc_node": 3.9666,
        "meta_arg_of_pericenter": 51.4918,
        "meta_mean_anomaly": 106.6438,
        "meta_ephemeris_type": 0,
        "meta_classification_type": "U",
        "meta_norad_cat_id": 29932,
        "meta_element_set_no": 999,
        "meta_rev_at_epoch": 97679,
        "meta_bstar": 0.000227,
        "meta_mean_motion_dot": 4.15e-06,
        "meta_mean_motion_ddot": 0,
        "tle_line1": "1 29932U 99025JE  25353.48035838  .00000415  00000+0  22700-3 0  9990",
        "tle_line2": "2 29932  98.6338   3.9666 0038374  51.4918 106.6438 14.16770472976792"
      },
      "geometry": {
        "type": "Point",
        "coordinates": [
          5.341648138691527,
          -4.732270289278232
        ]
      }
    },
    {
      "type": "Feature",
      "properties": {
        "norad_id": 29933,
        "name": "FENGYUN 1C DEB",
        "group": "fengyun-1c-debris",
        "lat": -51.702082751030666,
        "lon": 109.0828542942712,
        "alt_km": 676.9243287562085,
        "timestamp": "2025-12-20T03:42:47.665512+00:00",
        "meta_object_name": "FENGYUN 1C DEB",
        "meta_object_id": "1999-025JF",
        "meta_epoch": "2025-12-19T20:21:09.556128",
        "meta_mean_motion": 14.66102111,
        "meta_eccentricity": 0.0005027,
        "meta_inclination": 98.7495,
        "meta_ra_of_asc_node": 97.5102,
        "meta_arg_of_pericenter": 301.9724,
        "meta_mean_anomaly": 187.7759,
        "meta_ephemeris_type": 0,
        "meta_classification_type": "U",
        "meta_norad_cat_id": 29933,
        "meta_element_set_no": 999,
        "meta_rev_at_epoch": 98609,
        "meta_bstar": 0.0019515,
        "meta_mean_motion_dot": 0.0001068,
        "meta_mean_motion_ddot": 0,
        "tle_line1": "1 29933U 99025JF  25353.84802727  .00010680  00000+0  19515-2 0  9994",
        "tle_line2": "2 29933  98.7495  97.5102 0005027 301.9724 187.7759 14.66102111986093"
      },
      "geometry": {
        "type": "Point",
        "coordinates": [
          109.0828542942712,
          -51.702082751030666
        ]
      }
    },
    {
      "type": "Feature",
      "properties": {
        "norad_id": 29934,
        "name": "FENGYUN 1C DEB",
        "group": "fengyun-1c-debris",
        "lat": 1.4531328234932066,
        "lon": -138.1567196014059,
        "alt_km": 638.2239061411219,
        "timestamp": "2025-12-20T03:42:47.665522+00:00",
        "meta_object_name": "FENGYUN 1C DEB",
        "meta_object_id": "1999-025JG",
        "meta_epoch": "2025-12-19T13:46:07.836384",
        "meta_mean_motion": 14.63846567,
        "meta_eccentricity": 0.0100901,
        "meta_inclination": 98.9036,
        "meta_ra_of_asc_node": 40.988,
        "meta_arg_of_pericenter": 231.1326,
        "meta_mean_anomaly": 128.0839,
        "meta_ephemeris_type": 0,
        "meta_classification_type": "U",
        "meta_norad_cat_id": 29934,
        "meta_element_set_no": 999,
        "meta_rev_at_epoch": 99872,
        "meta_bstar": 0.00058459,
        "meta_mean_motion_dot": 3.226e-05,
        "meta_mean_motion_ddot": 0,
        "tle_line1": "1 29934U 99025JG  25353.57370181  .00003226  00000+0  58459-3 0  9998",
        "tle_line2": "2 29934  98.9036  40.9880 0100901 231.1326 128.0839 14.63846567998728"
      },
      "geometry": {
        "type": "Point",
        "coordinates": [
          -138.1567196014059,
          1.4531328234932066
        ]
      }
    },
    {
      "type": "Feature",
      "properties": {
        "norad_id": 29935,
        "name": "FENGYUN 1C DEB",
        "group": "fengyun-1c-debris",
        "lat": 59.774760593773316,
        "lon": 41.16356233317643,
        "alt_km": 913.5147733570484,
        "timestamp": "2025-12-20T03:42:47.665532+00:00",
        "meta_object_name": "FENGYUN 1C DEB",
        "meta_object_id": "1999-025JH",
        "meta_epoch": "2025-12-19T10:30:21.237984",
        "meta_mean_motion": 14.14241661,
        "meta_eccentricity": 0.0150512,
        "meta_inclination": 98.4607,
        "meta_ra_of_asc_node": 55.2863,
        "meta_arg_of_pericenter": 196.8207,
        "meta_mean_anomaly": 177.1216,
        "meta_ephemeris_type": 0,
        "meta_classification_type": "U",
        "meta_norad_cat_id": 29935,
        "meta_element_set_no": 999,
        "meta_rev_at_epoch": 97637,
        "meta_bstar": 9.0751e-05,
        "meta_mean_motion_dot": 1.52e-06,
        "meta_mean_motion_ddot": 0,
        "tle_line1": "1 29935U 99025JH  25353.43774581  .00000152  00000+0  90751-4 0  9993",
        "tle_line2": "2 29935  98.4607  55.2863 0150512 196.8207 177.1216 14.14241661976377"
      },
      "geometry": {
        "type": "Point",
        "coordinates": [
          41.16356233317643,
          59.774760593773316
        ]
      }
    },
    {
      "type": "Feature",
      "properties": {
        "norad_id": 29936,
        "name": "FENGYUN 1C DEB",
        "group": "fengyun-1c-debris",
        "lat": -54.974679830922376,
        "lon": 120.11430516860773,
        "alt_km": 842.361272832044,
        "timestamp": "2025-12-20T03:42:47.665542+00:00",
        "meta_object_name": "FENGYUN 1C DEB",
        "meta_object_id": "1999-025JJ",
        "meta_epoch": "2025-12-19T06:13:44.209344",
        "meta_mean_motion": 14.35319761,
        "meta_eccentricity": 0.0114339,
        "meta_inclination": 98.6565,
        "meta_ra_of_asc_node": 106.6621,
        "meta_arg_of_pericenter": 167.757,
        "meta_mean_anomaly": 192.6436,
        "meta_ephemeris_type": 0,
        "meta_classification_type": "U",
        "meta_norad_cat_id": 29936,
        "meta_element_set_no": 999,
        "meta_rev_at_epoch": 99024,
        "meta_bstar": 0.00013934,
        "meta_mean_motion_dot": 3.83e-06,
        "meta_mean_motion_ddot": 0,
        "tle_line1": "1 29936U 99025JJ  25353.25953946  .00000383  00000+0  13934-3 0  9991",
        "tle_line2": "2 29936  98.6565 106.6621 0114339 167.7570 192.6436 14.35319761990241"
      },
      "geometry": {
        "type": "Point",
        "coordinates": [
          120.11430516860773,
          -54.974679830922376
        ]
      }
    }
  ]
}